[{"OBJECT_NAME":"THAICOM 4","OBJECT_ID":"2005-028A","EPOCH":"2022-08-18T15:47:15.049248","MEAN_MOTION":1.00271634,"ECCENTRICITY":0.000221,"INCLINATION":0.0163,"RA_OF_ASC_NODE":111.4541,"ARG_OF_PERICENTER":46.3844,"MEAN_ANOMALY":165.4343,"EPHEMERIS_TYPE":0,"CLASSIFICATION_TYPE":"U","NORAD_CAT_ID":28786,"ELEMENT_SET_NO":999,"REV_AT_EPOCH":3823,"BSTAR":0,"MEAN_MOTION_DOT":-3.7e-6,"MEAN_MOTION_DDOT":0},{"OBJECT_NAME":"ARIANE 5 R\/B","OBJECT_ID":"2005-028B","EPOCH":"2022-08-18T11:18:46.596096","MEAN_MOTION":2.26578279,"ECCENTRICITY":0.7157378,"INCLINATION":7.3143,"RA_OF_ASC_NODE":33.7434,"ARG_OF_PERICENTER":182.0478,"MEAN_ANOMALY":171.6607,"EPHEMERIS_TYPE":0,"CLASSIFICATION_TYPE":"U","NORAD_CAT_ID":28787,"ELEMENT_SET_NO":999,"REV_AT_EPOCH":14091,"BSTAR":0.0016338,"MEAN_MOTION_DOT":9.0e-7,"MEAN_MOTION_DDOT":0},{"OBJECT_NAME":"GALAXY 14 (G-14)","OBJECT_ID":"2005-030A","EPOCH":"2022-08-18T14:04:25.145760","MEAN_MOTION":1.00273282,"ECCENTRICITY":0.0001755,"INCLINATION":1.4159,"RA_OF_ASC_NODE":91.6276,"ARG_OF_PERICENTER":59.5426,"MEAN_ANOMALY":59.7271,"EPHEMERIS_TYPE":0,"CLASSIFICATION_TYPE":"U","NORAD_CAT_ID":28790,"ELEMENT_SET_NO":999,"REV_AT_EPOCH":6228,"BSTAR":0,"MEAN_MOTION_DOT":1.47e-6,"MEAN_MOTION_DDOT":0},{"OBJECT_NAME":"ANIK F1R","OBJECT_ID":"2005-036A","EPOCH":"2022-08-18T16:35:29.029344","MEAN_MOTION":1.0027214,"ECCENTRICITY":0.0002611,"INCLINATION":0.7137,"RA_OF_ASC_NODE":93.2536,"ARG_OF_PERICENTER":34.3429,"MEAN_ANOMALY":340.975,"EPHEMERIS_TYPE":0,"CLASSIFICATION_TYPE":"U","NORAD_CAT_ID":28868,"ELEMENT_SET_NO":999,"REV_AT_EPOCH":3243,"BSTAR":0,"MEAN_MOTION_DOT":-8.1e-7,"MEAN_MOTION_DDOT":0},{"OBJECT_NAME":"GALAXY 15 (G-15)","OBJECT_ID":"2005-041A","EPOCH":"2022-08-18T14:38:46.170240","MEAN_MOTION":1.0027457,"ECCENTRICITY":0.0001729,"INCLINATION":0.0342,"RA_OF_ASC_NODE":280.4118,"ARG_OF_PERICENTER":232.8582,"MEAN_ANOMALY":260.3973,"EPHEMERIS_TYPE":0,"CLASSIFICATION_TYPE":"U","NORAD_CAT_ID":28884,"ELEMENT_SET_NO":999,"REV_AT_EPOCH":6158,"BSTAR":0,"MEAN_MOTION_DOT":7.2e-7,"MEAN_MOTION_DDOT":0},{"OBJECT_NAME":"SYRACUSE 3A","OBJECT_ID":"2005-041B","EPOCH":"2022-08-18T13:53:07.421568","MEAN_MOTION":1.00271392,"ECCENTRICITY":0.0002877,"INCLINATION":1.2734,"RA_OF_ASC_NODE":92.7092,"ARG_OF_PERICENTER":61.3584,"MEAN_ANOMALY":68.1292,"EPHEMERIS_TYPE":0,"CLASSIFICATION_TYPE":"U","NORAD_CAT_ID":28885,"ELEMENT_SET_NO":999,"REV_AT_EPOCH":6172,"BSTAR":0,"MEAN_MOTION_DOT":1.21e-6,"MEAN_MOTION_DDOT":0},{"OBJECT_NAME":"ARIANE 5 R\/B","OBJECT_ID":"2005-041C","EPOCH":"2022-08-18T21:48:13.364928","MEAN_MOTION":2.24350416,"ECCENTRICITY":0.7182311,"INCLINATION":8.4336,"RA_OF_ASC_NODE":7.9444,"ARG_OF_PERICENTER":58.5093,"MEAN_ANOMALY":29.9989,"EPHEMERIS_TYPE":0,"CLASSIFICATION_TYPE":"U","NORAD_CAT_ID":28886,"ELEMENT_SET_NO":999,"REV_AT_EPOCH":13814,"BSTAR":0.0004823,"MEAN_MOTION_DOT":-7.0e-8,"MEAN_MOTION_DDOT":0},{"OBJECT_NAME":"ARIANE 5 DEB [SYLDA]","OBJECT_ID":"2005-041D","EPOCH":"2022-08-18T12:09:17.267040","MEAN_MOTION":2.26691063,"ECCENTRICITY":0.7183038,"INCLINATION":7.689,"RA_OF_ASC_NODE":338.2179,"ARG_OF_PERICENTER":130.7064,"MEAN_ANOMALY":318.2728,"EPHEMERIS_TYPE":0,"CLASSIFICATION_TYPE":"U","NORAD_CAT_ID":28887,"ELEMENT_SET_NO":999,"REV_AT_EPOCH":13921,"BSTAR":0.0010256,"MEAN_MOTION_DOT":-3.7e-7,"MEAN_MOTION_DDOT":0},{"OBJECT_NAME":"INMARSAT 4-F2","OBJECT_ID":"2005-044A","EPOCH":"2022-08-18T21:11:42.527904","MEAN_MOTION":1.00273867,"ECCENTRICITY":0.0002923,"INCLINATION":3.5472,"RA_OF_ASC_NODE":37.9182,"ARG_OF_PERICENTER":123.3491,"MEAN_ANOMALY":187.7764,"EPHEMERIS_TYPE":0,"CLASSIFICATION_TYPE":"U","NORAD_CAT_ID":28899,"ELEMENT_SET_NO":999,"REV_AT_EPOCH":6149,"BSTAR":0,"MEAN_MOTION_DOT":2.0e-8,"MEAN_MOTION_DDOT":0},{"OBJECT_NAME":"SPACEWAY 2","OBJECT_ID":"2005-046B","EPOCH":"2022-08-18T14:26:54.503808","MEAN_MOTION":1.00272133,"ECCENTRICITY":2.79e-5,"INCLINATION":2.0449,"RA_OF_ASC_NODE":87.3245,"ARG_OF_PERICENTER":133.8116,"MEAN_ANOMALY":183.6155,"EPHEMERIS_TYPE":0,"CLASSIFICATION_TYPE":"U","NORAD_CAT_ID":28903,"ELEMENT_SET_NO":999,"REV_AT_EPOCH":3731,"BSTAR":0,"MEAN_MOTION_DOT":9.5e-7,"MEAN_MOTION_DDOT":0},{"OBJECT_NAME":"METEOSAT-9 (MSG-2)","OBJECT_ID":"2005-049B","EPOCH":"2022-08-18T05:16:10.509312","MEAN_MOTION":1.00266918,"ECCENTRICITY":7.79e-5,"INCLINATION":6.1549,"RA_OF_ASC_NODE":65.9002,"ARG_OF_PERICENTER":191.3029,"MEAN_ANOMALY":194.1379,"EPHEMERIS_TYPE":0,"CLASSIFICATION_TYPE":"U","NORAD_CAT_ID":28912,"ELEMENT_SET_NO":999,"REV_AT_EPOCH":6101,"BSTAR":0,"MEAN_MOTION_DOT":1.18e-6,"MEAN_MOTION_DDOT":0},{"OBJECT_NAME":"ARIANE 5 R\/B","OBJECT_ID":"2005-049C","EPOCH":"2022-08-19T04:56:24.360864","MEAN_MOTION":2.24873536,"ECCENTRICITY":0.7153242,"INCLINATION":3.9799,"RA_OF_ASC_NODE":109.9832,"ARG_OF_PERICENTER":28.8186,"MEAN_ANOMALY":128.3494,"EPHEMERIS_TYPE":0,"CLASSIFICATION_TYPE":"U","NORAD_CAT_ID":28913,"ELEMENT_SET_NO":999,"REV_AT_EPOCH":13691,"BSTAR":0.00061779,"MEAN_MOTION_DOT":-2.03e-6,"MEAN_MOTION_DDOT":0},{"OBJECT_NAME":"ARIANE 5 DEB [SYLDA]","OBJECT_ID":"2005-049D","EPOCH":"2022-08-18T20:46:03.978912","MEAN_MOTION":2.23526671,"ECCENTRICITY":0.7172464,"INCLINATION":3.9991,"RA_OF_ASC_NODE":130.0014,"ARG_OF_PERICENTER":349.6304,"MEAN_ANOMALY":267.067,"EPHEMERIS_TYPE":0,"CLASSIFICATION_TYPE":"U","NORAD_CAT_ID":28914,"ELEMENT_SET_NO":999,"REV_AT_EPOCH":13600,"BSTAR":0.00058499,"MEAN_MOTION_DOT":-1.54e-6,"MEAN_MOTION_DDOT":0},{"OBJECT_NAME":"EUTELSAT 174A","OBJECT_ID":"2005-052A","EPOCH":"2022-08-18T21:22:51.474720","MEAN_MOTION":1.00270592,"ECCENTRICITY":0.0006078,"INCLINATION":0.6615,"RA_OF_ASC_NODE":92.3642,"ARG_OF_PERICENTER":56.592,"MEAN_ANOMALY":312.9726,"EPHEMERIS_TYPE":0,"CLASSIFICATION_TYPE":"U","NORAD_CAT_ID":28924,"ELEMENT_SET_NO":999,"REV_AT_EPOCH":3831,"BSTAR":0,"MEAN_MOTION_DOT":3.0e-8,"MEAN_MOTION_DDOT":0},{"OBJECT_NAME":"ECHOSTAR 10","OBJECT_ID":"2006-003A","EPOCH":"2022-08-18T15:17:11.050080","MEAN_MOTION":1.00273095,"ECCENTRICITY":0.0001533,"INCLINATION":0.0348,"RA_OF_ASC_NODE":275.9486,"ARG_OF_PERICENTER":189.2462,"MEAN_ANOMALY":340.8919,"EPHEMERIS_TYPE":0,"CLASSIFICATION_TYPE":"U","NORAD_CAT_ID":28935,"ELEMENT_SET_NO":999,"REV_AT_EPOCH":6044,"BSTAR":0,"MEAN_MOTION_DOT":-6.2e-7,"MEAN_MOTION_DDOT":0},{"OBJECT_NAME":"BLOCK DM-SL R\/B","OBJECT_ID":"2006-003B","EPOCH":"2022-08-18T20:37:16.590720","MEAN_MOTION":2.19497702,"ECCENTRICITY":0.6797245,"INCLINATION":0.4801,"RA_OF_ASC_NODE":314.1607,"ARG_OF_PERICENTER":132.385,"MEAN_ANOMALY":260.8011,"EPHEMERIS_TYPE":0,"CLASSIFICATION_TYPE":"U","NORAD_CAT_ID":28936,"ELEMENT_SET_NO":999,"REV_AT_EPOCH":13237,"BSTAR":0,"MEAN_MOTION_DOT":-8.7e-7,"MEAN_MOTION_DDOT":0},{"OBJECT_NAME":"SPAINSAT","OBJECT_ID":"2006-007A","EPOCH":"2022-08-18T04:13:54.187104","MEAN_MOTION":1.00271155,"ECCENTRICITY":0.0005077,"INCLINATION":0.0612,"RA_OF_ASC_NODE":263.6403,"ARG_OF_PERICENTER":276.9627,"MEAN_ANOMALY":179.3856,"EPHEMERIS_TYPE":0,"CLASSIFICATION_TYPE":"U","NORAD_CAT_ID":28945,"ELEMENT_SET_NO":999,"REV_AT_EPOCH":6019,"BSTAR":0,"MEAN_MOTION_DOT":-2.24e-6,"MEAN_MOTION_DDOT":0},{"OBJECT_NAME":"EUTELSAT HOTBIRD 13E","OBJECT_ID":"2006-007B","EPOCH":"2022-08-18T20:44:42.666144","MEAN_MOTION":1.00273677,"ECCENTRICITY":0.000713,"INCLINATION":0.0416,"RA_OF_ASC_NODE":187.2459,"ARG_OF_PERICENTER":338.2356,"MEAN_ANOMALY":125.8778,"EPHEMERIS_TYPE":0,"CLASSIFICATION_TYPE":"U","NORAD_CAT_ID":28946,"ELEMENT_SET_NO":999,"REV_AT_EPOCH":6029,"BSTAR":0,"MEAN_MOTION_DOT":8.1e-7,"MEAN_MOTION_DDOT":0},{"OBJECT_NAME":"BREEZE-M R\/B","OBJECT_ID":"2003-024C","EPOCH":"2022-08-18T20:30:37.283616","MEAN_MOTION":1.82404088,"ECCENTRICITY":0.5104476,"INCLINATION":17.8269,"RA_OF_ASC_NODE":275.5045,"ARG_OF_PERICENTER":173.4063,"MEAN_ANOMALY":173.0512,"EPHEMERIS_TYPE":0,"CLASSIFICATION_TYPE":"U","NORAD_CAT_ID":28998,"ELEMENT_SET_NO":999,"REV_AT_EPOCH":6066,"BSTAR":0,"MEAN_MOTION_DOT":-1.0e-6,"MEAN_MOTION_DDOT":0},{"OBJECT_NAME":"SCATHA AKM","OBJECT_ID":"1979-007C","EPOCH":"2022-08-18T20:54:34.295328","MEAN_MOTION":1.0159216,"ECCENTRICITY":0.1696133,"INCLINATION":13.1236,"RA_OF_ASC_NODE":298.4187,"ARG_OF_PERICENTER":89.9135,"MEAN_ANOMALY":344.503,"EPHEMERIS_TYPE":0,"CLASSIFICATION_TYPE":"U","NORAD_CAT_ID":29000,"ELEMENT_SET_NO":999,"REV_AT_EPOCH":6372,"BSTAR":0,"MEAN_MOTION_DOT":-3.72e-6,"MEAN_MOTION_DDOT":0},{"OBJECT_NAME":"SATCOM 3 DEB","OBJECT_ID":"1979-101E","EPOCH":"2022-08-14T11:33:03.424896","MEAN_MOTION":1.81822389,"ECCENTRICITY":0.4812844,"INCLINATION":8.2484,"RA_OF_ASC_NODE":243.1012,"ARG_OF_PERICENTER":167.9417,"MEAN_ANOMALY":2.2991,"EPHEMERIS_TYPE":0,"CLASSIFICATION_TYPE":"U","NORAD_CAT_ID":29002,"ELEMENT_SET_NO":999,"REV_AT_EPOCH":10996,"BSTAR":0,"MEAN_MOTION_DOT":-1.08e-6,"MEAN_MOTION_DDOT":0},{"OBJECT_NAME":"SATCOM 3 DEB","OBJECT_ID":"1979-101F","EPOCH":"2022-08-18T19:21:02.673216","MEAN_MOTION":1.83296395,"ECCENTRICITY":0.4934003,"INCLINATION":6.8559,"RA_OF_ASC_NODE":185.9796,"ARG_OF_PERICENTER":276.1735,"MEAN_ANOMALY":303.964,"EPHEMERIS_TYPE":0,"CLASSIFICATION_TYPE":"U","NORAD_CAT_ID":29003,"ELEMENT_SET_NO":999,"REV_AT_EPOCH":6096,"BSTAR":0,"MEAN_MOTION_DOT":-1.17e-6,"MEAN_MOTION_DDOT":0},{"OBJECT_NAME":"SATCOM 3 DEB","OBJECT_ID":"1979-101G","EPOCH":"2022-08-18T12:24:35.006112","MEAN_MOTION":1.81274789,"ECCENTRICITY":0.4871576,"INCLINATION":7.7256,"RA_OF_ASC_NODE":236.3029,"ARG_OF_PERICENTER":184.1547,"MEAN_ANOMALY":206.6956,"EPHEMERIS_TYPE":0,"CLASSIFICATION_TYPE":"U","NORAD_CAT_ID":29004,"ELEMENT_SET_NO":999,"REV_AT_EPOCH":10940,"BSTAR":0,"MEAN_MOTION_DOT":-6.8e-7,"MEAN_MOTION_DDOT":0},{"OBJECT_NAME":"EKRAN 2 DEB","OBJECT_ID":"1977-092K","EPOCH":"2022-08-18T21:19:12.987264","MEAN_MOTION":1.00159616,"ECCENTRICITY":0.0015927,"INCLINATION":7.6897,"RA_OF_ASC_NODE":292.7131,"ARG_OF_PERICENTER":296.9836,"MEAN_ANOMALY":218.2643,"EPHEMERIS_TYPE":0,"CLASSIFICATION_TYPE":"U","NORAD_CAT_ID":29014,"ELEMENT_SET_NO":999,"REV_AT_EPOCH":3327,"BSTAR":0,"MEAN_MOTION_DOT":-1.28e-6,"MEAN_MOTION_DDOT":0}]